{"fetched_at":"2026-07-08T07:04:26.719Z","source":"https://celestrak.org/NORAD/elements/gp.php?NAME=WORLDVIEW&FORMAT=JSON","constellation":"worldview","records":[{"OBJECT_NAME":"WORLDVIEW-1 (WV-1)","OBJECT_ID":"2007-041A","EPOCH":"2026-07-07T18:32:29.541696","CLASSIFICATION_TYPE":"U","MEAN_MOTION":15.24502747,"ECCENTRICITY":0.0000968,"INCLINATION":97.3892,"RA_OF_ASC_NODE":308.2257,"ARG_OF_PERICENTER":255.874,"MEAN_ANOMALY":104.239,"EPHEMERIS_TYPE":0,"NORAD_CAT_ID":32060,"ELEMENT_SET_NO":999,"REV_AT_EPOCH":4601,"BSTAR":0.00017154,"MEAN_MOTION_DOT":0.00004146,"MEAN_MOTION_DDOT":0},{"OBJECT_NAME":"WORLDVIEW-2 (WV-2)","OBJECT_ID":"2009-055A","EPOCH":"2026-07-07T18:16:10.475040","CLASSIFICATION_TYPE":"U","MEAN_MOTION":14.37905573,"ECCENTRICITY":0.0004976,"INCLINATION":98.4759,"RA_OF_ASC_NODE":261.9303,"ARG_OF_PERICENTER":148.2131,"MEAN_ANOMALY":211.9357,"EPHEMERIS_TYPE":0,"NORAD_CAT_ID":35946,"ELEMENT_SET_NO":999,"REV_AT_EPOCH":87860,"BSTAR":0.000038406,"MEAN_MOTION_DOT":7.2e-7,"MEAN_MOTION_DDOT":0},{"OBJECT_NAME":"WORLDVIEW-3 (WV-3)","OBJECT_ID":"2014-048A","EPOCH":"2026-07-07T18:51:08.865792","CLASSIFICATION_TYPE":"U","MEAN_MOTION":14.85056448,"ECCENTRICITY":0.0000708,"INCLINATION":97.8559,"RA_OF_ASC_NODE":263.3336,"ARG_OF_PERICENTER":166.5968,"MEAN_ANOMALY":193.5266,"EPHEMERIS_TYPE":0,"NORAD_CAT_ID":40115,"ELEMENT_SET_NO":999,"REV_AT_EPOCH":64496,"BSTAR":0.000089075,"MEAN_MOTION_DOT":0.00000707,"MEAN_MOTION_DDOT":0}]}
